[{"OBJECT_NAME":"STARLINK-35676","OBJECT_ID":"2026-003M","EPOCH":"2026-01-22T06:00:02.999808","MEAN_MOTION":15.78267699,"ECCENTRICITY":0.00013594,"INCLINATION":42.9984,"RA_OF_ASC_NODE":134.7139,"ARG_OF_PERICENTER":268.1993,"MEAN_ANOMALY":320.7739,"EPHEMERIS_TYPE":0,"CLASSIFICATION_TYPE":"U","NORAD_CAT_ID":67345,"ELEMENT_SET_NO":999,"REV_AT_EPOCH":319,"BSTAR":-0.010514466,"MEAN_MOTION_DOT":-0.01655333,"MEAN_MOTION_DDOT":0},{"OBJECT_NAME":"STARLINK-36472","OBJECT_ID":"2026-003N","EPOCH":"2026-01-22T06:00:02.999808","MEAN_MOTION":15.78233486,"ECCENTRICITY":0.00013408,"INCLINATION":42.9986,"RA_OF_ASC_NODE":134.7084,"ARG_OF_PERICENTER":267.6122,"MEAN_ANOMALY":323.4088,"EPHEMERIS_TYPE":0,"CLASSIFICATION_TYPE":"U","NORAD_CAT_ID":67346,"ELEMENT_SET_NO":999,"REV_AT_EPOCH":319,"BSTAR":-0.010553161,"MEAN_MOTION_DOT":-0.01658431,"MEAN_MOTION_DDOT":0},{"OBJECT_NAME":"STARLINK-36420","OBJECT_ID":"2026-003P","EPOCH":"2026-01-22T06:00:02.999808","MEAN_MOTION":15.78111914,"ECCENTRICITY":0.0001449,"INCLINATION":42.9988,"RA_OF_ASC_NODE":134.6978,"ARG_OF_PERICENTER":273.9225,"MEAN_ANOMALY":321.3777,"EPHEMERIS_TYPE":0,"CLASSIFICATION_TYPE":"U","NORAD_CAT_ID":67347,"ELEMENT_SET_NO":999,"REV_AT_EPOCH":320,"BSTAR":-0.010787611,"MEAN_MOTION_DOT":-0.01682858,"MEAN_MOTION_DDOT":0},{"OBJECT_NAME":"STARLINK-36467","OBJECT_ID":"2026-003Q","EPOCH":"2026-01-22T06:00:02.999808","MEAN_MOTION":15.78150182,"ECCENTRICITY":0.00014334,"INCLINATION":42.9987,"RA_OF_ASC_NODE":134.7033,"ARG_OF_PERICENTER":274.1454,"MEAN_ANOMALY":319.1006,"EPHEMERIS_TYPE":0,"CLASSIFICATION_TYPE":"U","NORAD_CAT_ID":67348,"ELEMENT_SET_NO":999,"REV_AT_EPOCH":320,"BSTAR":-0.010712112,"MEAN_MOTION_DOT":-0.0167499,"MEAN_MOTION_DDOT":0},{"OBJECT_NAME":"STARLINK-36457","OBJECT_ID":"2026-003R","EPOCH":"2026-01-22T06:00:02.999808","MEAN_MOTION":15.78013533,"ECCENTRICITY":0.00014179,"INCLINATION":42.9987,"RA_OF_ASC_NODE":134.6923,"ARG_OF_PERICENTER":273.8034,"MEAN_ANOMALY":323.7402,"EPHEMERIS_TYPE":0,"CLASSIFICATION_TYPE":"U","NORAD_CAT_ID":67349,"ELEMENT_SET_NO":999,"REV_AT_EPOCH":320,"BSTAR":-0.010920656,"MEAN_MOTION_DOT":-0.01694469,"MEAN_MOTION_DDOT":0},{"OBJECT_NAME":"STARLINK-36475","OBJECT_ID":"2026-003S","EPOCH":"2026-01-22T06:00:02.999808","MEAN_MOTION":15.7792214,"ECCENTRICITY":0.00011784,"INCLINATION":42.9986,"RA_OF_ASC_NODE":134.6866,"ARG_OF_PERICENTER":272.2695,"MEAN_ANOMALY":327.4721,"EPHEMERIS_TYPE":0,"CLASSIFICATION_TYPE":"U","NORAD_CAT_ID":67350,"ELEMENT_SET_NO":999,"REV_AT_EPOCH":319,"BSTAR":-0.01101391,"MEAN_MOTION_DOT":-0.01700824,"MEAN_MOTION_DDOT":0},{"OBJECT_NAME":"STARLINK-36478","OBJECT_ID":"2026-003T","EPOCH":"2026-01-22T06:00:02.999808","MEAN_MOTION":15.77902995,"ECCENTRICITY":0.00012431,"INCLINATION":42.9987,"RA_OF_ASC_NODE":134.6816,"ARG_OF_PERICENTER":266.8221,"MEAN_ANOMALY":334.9106,"EPHEMERIS_TYPE":0,"CLASSIFICATION_TYPE":"U","NORAD_CAT_ID":67351,"ELEMENT_SET_NO":999,"REV_AT_EPOCH":319,"BSTAR":-0.011059148,"MEAN_MOTION_DOT":-0.01705733,"MEAN_MOTION_DDOT":0},{"OBJECT_NAME":"STARLINK-36479","OBJECT_ID":"2026-003U","EPOCH":"2026-01-22T06:00:02.999808","MEAN_MOTION":15.77872066,"ECCENTRICITY":0.00012943,"INCLINATION":42.9987,"RA_OF_ASC_NODE":134.6765,"ARG_OF_PERICENTER":263.5325,"MEAN_ANOMALY":340.2197,"EPHEMERIS_TYPE":0,"CLASSIFICATION_TYPE":"U","NORAD_CAT_ID":67352,"ELEMENT_SET_NO":999,"REV_AT_EPOCH":320,"BSTAR":-0.011122809,"MEAN_MOTION_DOT":-0.01712317,"MEAN_MOTION_DDOT":0},{"OBJECT_NAME":"STARLINK-36474","OBJECT_ID":"2026-003V","EPOCH":"2026-01-22T06:00:02.999808","MEAN_MOTION":15.77801957,"ECCENTRICITY":0.00012053,"INCLINATION":42.9987,"RA_OF_ASC_NODE":134.6715,"ARG_OF_PERICENTER":263.2352,"MEAN_ANOMALY":342.6496,"EPHEMERIS_TYPE":0,"CLASSIFICATION_TYPE":"U","NORAD_CAT_ID":67353,"ELEMENT_SET_NO":999,"REV_AT_EPOCH":320,"BSTAR":-0.011263642,"MEAN_MOTION_DOT":-0.01726513,"MEAN_MOTION_DDOT":0},{"OBJECT_NAME":"STARLINK-36448","OBJECT_ID":"2026-003W","EPOCH":"2026-01-22T06:00:02.999808","MEAN_MOTION":15.77638681,"ECCENTRICITY":0.00013273,"INCLINATION":42.9988,"RA_OF_ASC_NODE":134.6556,"ARG_OF_PERICENTER":262.9296,"MEAN_ANOMALY":349.1642,"EPHEMERIS_TYPE":0,"CLASSIFICATION_TYPE":"U","NORAD_CAT_ID":67354,"ELEMENT_SET_NO":999,"REV_AT_EPOCH":320,"BSTAR":-0.011473645,"MEAN_MOTION_DOT":-0.01743531,"MEAN_MOTION_DDOT":0},{"OBJECT_NAME":"STARLINK-36477","OBJECT_ID":"2026-003X","EPOCH":"2026-01-22T06:00:02.999808","MEAN_MOTION":15.77706031,"ECCENTRICITY":0.00013163,"INCLINATION":42.9986,"RA_OF_ASC_NODE":134.666,"ARG_OF_PERICENTER":268.2624,"MEAN_ANOMALY":339.811,"EPHEMERIS_TYPE":0,"CLASSIFICATION_TYPE":"U","NORAD_CAT_ID":67355,"ELEMENT_SET_NO":999,"REV_AT_EPOCH":319,"BSTAR":-0.011399653,"MEAN_MOTION_DOT":-0.01738282,"MEAN_MOTION_DDOT":0},{"OBJECT_NAME":"STARLINK-36429","OBJECT_ID":"2026-003Y","EPOCH":"2026-01-22T06:00:02.999808","MEAN_MOTION":15.77672933,"ECCENTRICITY":0.00012939,"INCLINATION":42.9987,"RA_OF_ASC_NODE":134.6607,"ARG_OF_PERICENTER":274.1933,"MEAN_ANOMALY":335.8991,"EPHEMERIS_TYPE":0,"CLASSIFICATION_TYPE":"U","NORAD_CAT_ID":67356,"ELEMENT_SET_NO":999,"REV_AT_EPOCH":319,"BSTAR":-0.011489737,"MEAN_MOTION_DOT":-0.01748043,"MEAN_MOTION_DDOT":0},{"OBJECT_NAME":"STARLINK-36456","OBJECT_ID":"2026-003Z","EPOCH":"2026-01-22T06:00:02.999808","MEAN_MOTION":15.77566105,"ECCENTRICITY":0.0001449,"INCLINATION":42.9987,"RA_OF_ASC_NODE":134.6499,"ARG_OF_PERICENTER":274.2531,"MEAN_ANOMALY":339.9487,"EPHEMERIS_TYPE":0,"CLASSIFICATION_TYPE":"U","NORAD_CAT_ID":67357,"ELEMENT_SET_NO":999,"REV_AT_EPOCH":320,"BSTAR":-0.011593595,"MEAN_MOTION_DOT":-0.01754574,"MEAN_MOTION_DDOT":0},{"OBJECT_NAME":"STARLINK-36466","OBJECT_ID":"2026-003AA","EPOCH":"2026-01-22T06:00:02.999808","MEAN_MOTION":15.77473692,"ECCENTRICITY":0.00014704,"INCLINATION":42.9986,"RA_OF_ASC_NODE":134.6445,"ARG_OF_PERICENTER":272.4579,"MEAN_ANOMALY":343.8987,"EPHEMERIS_TYPE":0,"CLASSIFICATION_TYPE":"U","NORAD_CAT_ID":67358,"ELEMENT_SET_NO":999,"REV_AT_EPOCH":320,"BSTAR":-0.011731551,"MEAN_MOTION_DOT":-0.01766424,"MEAN_MOTION_DDOT":0},{"OBJECT_NAME":"STARLINK-36499","OBJECT_ID":"2026-003AB","EPOCH":"2026-01-22T06:00:02.999808","MEAN_MOTION":15.773925,"ECCENTRICITY":0.00013,"INCLINATION":42.9984,"RA_OF_ASC_NODE":134.6396,"ARG_OF_PERICENTER":276.8819,"MEAN_ANOMALY":341.5001,"EPHEMERIS_TYPE":0,"CLASSIFICATION_TYPE":"U","NORAD_CAT_ID":67359,"ELEMENT_SET_NO":999,"REV_AT_EPOCH":320,"BSTAR":-0.01117578,"MEAN_MOTION_DOT":-0.01686835,"MEAN_MOTION_DDOT":0},{"OBJECT_NAME":"STARLINK-36469","OBJECT_ID":"2026-003AC","EPOCH":"2026-01-22T06:00:02.999808","MEAN_MOTION":15.77311524,"ECCENTRICITY":0.00013148,"INCLINATION":42.9988,"RA_OF_ASC_NODE":134.6342,"ARG_OF_PERICENTER":268.1535,"MEAN_ANOMALY":352.3535,"EPHEMERIS_TYPE":0,"CLASSIFICATION_TYPE":"U","NORAD_CAT_ID":67360,"ELEMENT_SET_NO":999,"REV_AT_EPOCH":320,"BSTAR":-0.01138115,"MEAN_MOTION_DOT":-0.01708685,"MEAN_MOTION_DDOT":0}]
