STARLINK-35676          
1 67345U 26003M   26022.25003472 -.01655333  00000+0 -10514-1 0  9990
2 67345  42.9984 134.7139 0001359 268.1993 320.7739 15.78267699  3191
STARLINK-36472          
1 67346U 26003N   26022.25003472 -.01658431  00000+0 -10553-1 0  9996
2 67346  42.9986 134.7084 0001340 267.6122 323.4088 15.78233486  3195
STARLINK-36420          
1 67347U 26003P   26022.25003472 -.01682858  00000+0 -10788-1 0  9997
2 67347  42.9988 134.6978 0001449 273.9225 321.3777 15.78111914  3208
STARLINK-36467          
1 67348U 26003Q   26022.25003472 -.01674990  00000+0 -10712-1 0  9993
2 67348  42.9987 134.7033 0001433 274.1454 319.1006 15.78150182  3201
STARLINK-36457          
1 67349U 26003R   26022.25003472 -.01694469  00000+0 -10921-1 0  9999
2 67349  42.9987 134.6923 0001417 273.8034 323.7402 15.78013533  3200
STARLINK-36475          
1 67350U 26003S   26022.25003472 -.01700824  00000+0 -11014-1 0  9998
2 67350  42.9986 134.6866 0001178 272.2695 327.4721 15.77922140  3192
STARLINK-36478          
1 67351U 26003T   26022.25003472 -.01705733  00000+0 -11059-1 0  9992
2 67351  42.9987 134.6816 0001243 266.8221 334.9106 15.77902995  3192
STARLINK-36479          
1 67352U 26003U   26022.25003472 -.01712317  00000+0 -11123-1 0  9991
2 67352  42.9987 134.6765 0001294 263.5325 340.2197 15.77872066  3208
STARLINK-36474          
1 67353U 26003V   26022.25003472 -.01726513  00000+0 -11264-1 0  9991
2 67353  42.9987 134.6715 0001205 263.2352 342.6496 15.77801957  3202
STARLINK-36448          
1 67354U 26003W   26022.25003472 -.01743531  00000+0 -11474-1 0  9994
2 67354  42.9988 134.6556 0001327 262.9296 349.1642 15.77638681  3202
STARLINK-36477          
1 67355U 26003X   26022.25003472 -.01738282  00000+0 -11400-1 0  9991
2 67355  42.9986 134.6660 0001316 268.2624 339.8110 15.77706031  3198
STARLINK-36429          
1 67356U 26003Y   26022.25003472 -.01748043  00000+0 -11490-1 0  9997
2 67356  42.9987 134.6607 0001293 274.1933 335.8991 15.77672933  3190
STARLINK-36456          
1 67357U 26003Z   26022.25003472 -.01754574  00000+0 -11594-1 0  9999
2 67357  42.9987 134.6499 0001449 274.2531 339.9487 15.77566105  3208
STARLINK-36466          
1 67358U 26003AA  26022.25003472 -.01766424  00000+0 -11732-1 0  9991
2 67358  42.9986 134.6445 0001470 272.4579 343.8987 15.77473692  3202
STARLINK-36499          
1 67359U 26003AB  26022.25003472 -.01686835  00000+0 -11176-1 0  9991
2 67359  42.9984 134.6396 0001300 276.8819 341.5001 15.77392500  3203
STARLINK-36469          
1 67360U 26003AC  26022.25003472 -.01708685  00000+0 -11381-1 0  9999
2 67360  42.9988 134.6342 0001314 268.1535 352.3535 15.77311524  3203
